<?xml version='1.0' encoding='UTF-8'?>
<gpx version="1.1" creator="https://www.komoot.de" xmlns="http://www.topografix.com/GPX/1/1" xmlns:xsi="http://www.w3.org/2001/XMLSchema-instance" xsi:schemaLocation="http://www.topografix.com/GPX/1/1 http://www.topografix.com/GPX/1/1/gpx.xsd">
  <metadata>
    <name>Area of Influence Madlein Lawine</name>
    <author>
      <link href="https://www.komoot.de">
        <text>komoot</text>
        <type>text/html</type>
      </link>
    </author>
  </metadata>
  <trk>
    <name>Area of Influence Madlein Lawine</name>
    <type>hike</type>
    <trkseg>
      <trkpt lat="47.015515" lon="10.295515">
        <ele>1346.346940</ele>
        <time>2026-06-25T14:07:18.243Z</time>
      </trkpt>
      <trkpt lat="47.014870" lon="10.295395">
        <ele>1346.346940</ele>
        <time>2026-06-25T14:08:23.357Z</time>
      </trkpt>
      <trkpt lat="47.014226" lon="10.295275">
        <ele>1349.804596</ele>
        <time>2026-06-25T14:09:28.464Z</time>
      </trkpt>
      <trkpt lat="47.013581" lon="10.295155">
        <ele>1355.424417</ele>
        <time>2026-06-25T14:10:33.704Z</time>
      </trkpt>
      <trkpt lat="47.012871" lon="10.294624">
        <ele>1362.553611</ele>
        <time>2026-06-25T14:11:53.767Z</time>
      </trkpt>
      <trkpt lat="47.012161" lon="10.294093">
        <ele>1373.389772</ele>
        <time>2026-06-25T14:13:13.992Z</time>
      </trkpt>
      <trkpt lat="47.011450" lon="10.293561">
        <ele>1384.242286</ele>
        <time>2026-06-25T14:14:34.657Z</time>
      </trkpt>
      <trkpt lat="47.010739" lon="10.293030">
        <ele>1394.090939</ele>
        <time>2026-06-25T14:15:55.273Z</time>
      </trkpt>
      <trkpt lat="47.010029" lon="10.292499">
        <ele>1403.687980</ele>
        <time>2026-06-25T14:17:15.787Z</time>
      </trkpt>
      <trkpt lat="47.009318" lon="10.291968">
        <ele>1404.290395</ele>
        <time>2026-06-25T14:18:35.673Z</time>
      </trkpt>
      <trkpt lat="47.009134" lon="10.290846">
        <ele>1397.630426</ele>
        <time>2026-06-25T14:19:54.687Z</time>
      </trkpt>
      <trkpt lat="47.008949" lon="10.289724">
        <ele>1390.120077</ele>
        <time>2026-06-25T14:21:14.760Z</time>
      </trkpt>
      <trkpt lat="47.008765" lon="10.288602">
        <ele>1380.348358</ele>
        <time>2026-06-25T14:22:34.223Z</time>
      </trkpt>
      <trkpt lat="47.008581" lon="10.287480">
        <ele>1370.576606</ele>
        <time>2026-06-25T14:23:53.203Z</time>
      </trkpt>
      <trkpt lat="47.008396" lon="10.286358">
        <ele>1366.510359</ele>
        <time>2026-06-25T14:25:12.032Z</time>
      </trkpt>
      <trkpt lat="47.008211" lon="10.285236">
        <ele>1362.519959</ele>
        <time>2026-06-25T14:26:30.888Z</time>
      </trkpt>
      <trkpt lat="47.008211" lon="10.285236">
        <ele>1362.519959</ele>
        <time>2026-06-25T14:26:30.891Z</time>
      </trkpt>
      <trkpt lat="47.008856" lon="10.284642">
        <ele>1359.781934</ele>
        <time>2026-06-25T14:27:47.165Z</time>
      </trkpt>
      <trkpt lat="47.009501" lon="10.284048">
        <ele>1357.544169</ele>
        <time>2026-06-25T14:29:03.410Z</time>
      </trkpt>
      <trkpt lat="47.010185" lon="10.284603">
        <ele>1356.141847</ele>
        <time>2026-06-25T14:30:21.648Z</time>
      </trkpt>
      <trkpt lat="47.010869" lon="10.285159">
        <ele>1356.419308</ele>
        <time>2026-06-25T14:31:39.917Z</time>
      </trkpt>
      <trkpt lat="47.011552" lon="10.285714">
        <ele>1357.189968</ele>
        <time>2026-06-25T14:32:58.064Z</time>
      </trkpt>
      <trkpt lat="47.012236" lon="10.286270">
        <ele>1368.234225</ele>
        <time>2026-06-25T14:34:16.479Z</time>
      </trkpt>
      <trkpt lat="47.012919" lon="10.286825">
        <ele>1379.261428</ele>
        <time>2026-06-25T14:35:35.650Z</time>
      </trkpt>
      <trkpt lat="47.013700" lon="10.286281">
        <ele>1406.619621</ele>
        <time>2026-06-25T14:37:04.722Z</time>
      </trkpt>
      <trkpt lat="47.014480" lon="10.285738">
        <ele>1438.489912</ele>
        <time>2026-06-25T14:38:36.685Z</time>
      </trkpt>
      <trkpt lat="47.015261" lon="10.285194">
        <ele>1479.961708</ele>
        <time>2026-06-25T14:40:11.590Z</time>
      </trkpt>
      <trkpt lat="47.016041" lon="10.284651">
        <ele>1525.723087</ele>
        <time>2026-06-25T14:41:48.448Z</time>
      </trkpt>
      <trkpt lat="47.016822" lon="10.284107">
        <ele>1567.542224</ele>
        <time>2026-06-25T14:43:24.840Z</time>
      </trkpt>
      <trkpt lat="47.017426" lon="10.283538">
        <ele>1600.095480</ele>
        <time>2026-06-25T14:44:42.680Z</time>
      </trkpt>
      <trkpt lat="47.018030" lon="10.282968">
        <ele>1630.448435</ele>
        <time>2026-06-25T14:45:58.623Z</time>
      </trkpt>
      <trkpt lat="47.018635" lon="10.282399">
        <ele>1653.131837</ele>
        <time>2026-06-25T14:47:12.680Z</time>
      </trkpt>
      <trkpt lat="47.019239" lon="10.281829">
        <ele>1675.800236</ele>
        <time>2026-06-25T14:48:26.911Z</time>
      </trkpt>
      <trkpt lat="47.019746" lon="10.280857">
        <ele>1709.026756</ele>
        <time>2026-06-25T14:49:54.742Z</time>
      </trkpt>
      <trkpt lat="47.019999" lon="10.280371">
        <ele>1726.720187</ele>
        <time>2026-06-25T14:50:39.956Z</time>
      </trkpt>
      <trkpt lat="47.020253" lon="10.279884">
        <ele>1744.462328</ele>
        <time>2026-06-25T14:51:25.453Z</time>
      </trkpt>
      <trkpt lat="47.020507" lon="10.279398">
        <ele>1762.110343</ele>
        <time>2026-06-25T14:52:10.884Z</time>
      </trkpt>
      <trkpt lat="47.020761" lon="10.278912">
        <ele>1779.488895</ele>
        <time>2026-06-25T14:52:56.241Z</time>
      </trkpt>
      <trkpt lat="47.021268" lon="10.277940">
        <ele>1814.220533</ele>
        <time>2026-06-25T14:54:25.415Z</time>
      </trkpt>
      <trkpt lat="47.021775" lon="10.276967">
        <ele>1845.686748</ele>
        <time>2026-06-25T14:55:53.190Z</time>
      </trkpt>
      <trkpt lat="47.022282" lon="10.275995">
        <ele>1873.107910</ele>
        <time>2026-06-25T14:57:20.352Z</time>
      </trkpt>
      <trkpt lat="47.022789" lon="10.275022">
        <ele>1898.345147</ele>
        <time>2026-06-25T14:58:47.032Z</time>
      </trkpt>
      <trkpt lat="47.023296" lon="10.274050">
        <ele>1918.293990</ele>
        <time>2026-06-25T15:00:12.678Z</time>
      </trkpt>
      <trkpt lat="47.023803" lon="10.273078">
        <ele>1937.790507</ele>
        <time>2026-06-25T15:01:37.346Z</time>
      </trkpt>
      <trkpt lat="47.024311" lon="10.272105">
        <ele>1954.505259</ele>
        <time>2026-06-25T15:03:02.283Z</time>
      </trkpt>
      <trkpt lat="47.024818" lon="10.271133">
        <ele>1971.196921</ele>
        <time>2026-06-25T15:04:27.147Z</time>
      </trkpt>
      <trkpt lat="47.025325" lon="10.270160">
        <ele>1982.203754</ele>
        <time>2026-06-25T15:05:52.200Z</time>
      </trkpt>
      <trkpt lat="47.025832" lon="10.269188">
        <ele>1993.113269</ele>
        <time>2026-06-25T15:07:15.816Z</time>
      </trkpt>
      <trkpt lat="47.026579" lon="10.269732">
        <ele>2008.633855</ele>
        <time>2026-06-25T15:08:39.438Z</time>
      </trkpt>
      <trkpt lat="47.027326" lon="10.270277">
        <ele>2025.111476</ele>
        <time>2026-06-25T15:10:04.021Z</time>
      </trkpt>
      <trkpt lat="47.027700" lon="10.270549">
        <ele>2038.430199</ele>
        <time>2026-06-25T15:10:48.898Z</time>
      </trkpt>
      <trkpt lat="47.028074" lon="10.270821">
        <ele>2061.327291</ele>
        <time>2026-06-25T15:11:34.767Z</time>
      </trkpt>
      <trkpt lat="47.028447" lon="10.271093">
        <ele>2084.175219</ele>
        <time>2026-06-25T15:12:21.641Z</time>
      </trkpt>
      <trkpt lat="47.028821" lon="10.271365">
        <ele>2107.072248</ele>
        <time>2026-06-25T15:13:09.367Z</time>
      </trkpt>
      <trkpt lat="47.029195" lon="10.271637">
        <ele>2130.138183</ele>
        <time>2026-06-25T15:13:57.936Z</time>
      </trkpt>
      <trkpt lat="47.029569" lon="10.271909">
        <ele>2157.815656</ele>
        <time>2026-06-25T15:14:45.580Z</time>
      </trkpt>
      <trkpt lat="47.029943" lon="10.272182">
        <ele>2185.513192</ele>
        <time>2026-06-25T15:15:33.657Z</time>
      </trkpt>
      <trkpt lat="47.030316" lon="10.272454">
        <ele>2213.131199</ele>
        <time>2026-06-25T15:16:22.557Z</time>
      </trkpt>
      <trkpt lat="47.030690" lon="10.272726">
        <ele>2240.808556</ele>
        <time>2026-06-25T15:17:12.229Z</time>
      </trkpt>
      <trkpt lat="47.031064" lon="10.272998">
        <ele>2268.638644</ele>
        <time>2026-06-25T15:18:01.466Z</time>
      </trkpt>
      <trkpt lat="47.031811" lon="10.273542">
        <ele>2324.354696</ele>
        <time>2026-06-25T15:19:39.191Z</time>
      </trkpt>
      <trkpt lat="47.032521" lon="10.273879">
        <ele>2373.878464</ele>
        <time>2026-06-25T15:21:05.648Z</time>
      </trkpt>
      <trkpt lat="47.033232" lon="10.274217">
        <ele>2420.873322</ele>
        <time>2026-06-25T15:22:31.149Z</time>
      </trkpt>
      <trkpt lat="47.033942" lon="10.274555">
        <ele>2467.808307</ele>
        <time>2026-06-25T15:23:57.052Z</time>
      </trkpt>
      <trkpt lat="47.034653" lon="10.274893">
        <ele>2515.263692</ele>
        <time>2026-06-25T15:25:22.965Z</time>
      </trkpt>
      <trkpt lat="47.035363" lon="10.275231">
        <ele>2562.851266</ele>
        <time>2026-06-25T15:26:48.698Z</time>
      </trkpt>
      <trkpt lat="47.035996" lon="10.275734">
        <ele>2608.226570</ele>
        <time>2026-06-25T15:28:12.079Z</time>
      </trkpt>
      <trkpt lat="47.036629" lon="10.276236">
        <ele>2652.180955</ele>
        <time>2026-06-25T15:29:36.978Z</time>
      </trkpt>
      <trkpt lat="47.037261" lon="10.276739">
        <ele>2696.101326</ele>
        <time>2026-06-25T15:30:59.849Z</time>
      </trkpt>
      <trkpt lat="47.037894" lon="10.277241">
        <ele>2714.365917</ele>
        <time>2026-06-25T15:32:16.573Z</time>
      </trkpt>
      <trkpt lat="47.037499" lon="10.278253">
        <ele>2726.054066</ele>
        <time>2026-06-25T15:33:36.385Z</time>
      </trkpt>
      <trkpt lat="47.037104" lon="10.279264">
        <ele>2726.894989</ele>
        <time>2026-06-25T15:34:56.534Z</time>
      </trkpt>
      <trkpt lat="47.036709" lon="10.280276">
        <ele>2713.559111</ele>
        <time>2026-06-25T15:36:16.842Z</time>
      </trkpt>
      <trkpt lat="47.036383" lon="10.281458">
        <ele>2695.573532</ele>
        <time>2026-06-25T15:37:45.282Z</time>
      </trkpt>
      <trkpt lat="47.036057" lon="10.282639">
        <ele>2666.888140</ele>
        <time>2026-06-25T15:39:14.514Z</time>
      </trkpt>
      <trkpt lat="47.035339" lon="10.283203">
        <ele>2637.778225</ele>
        <time>2026-06-25T15:40:42.184Z</time>
      </trkpt>
      <trkpt lat="47.035088" lon="10.283270">
        <ele>2623.335388</ele>
        <time>2026-06-25T15:41:10.214Z</time>
      </trkpt>
      <trkpt lat="47.034765" lon="10.283574">
        <ele>2601.611037</ele>
        <time>2026-06-25T15:41:52.932Z</time>
      </trkpt>
      <trkpt lat="47.034165" lon="10.284032">
        <ele>2563.321938</ele>
        <time>2026-06-25T15:43:09.969Z</time>
      </trkpt>
      <trkpt lat="47.033414" lon="10.284278">
        <ele>2518.464547</ele>
        <time>2026-06-25T15:44:38.701Z</time>
      </trkpt>
      <trkpt lat="47.032664" lon="10.284523">
        <ele>2472.344937</ele>
        <time>2026-06-25T15:46:06.396Z</time>
      </trkpt>
      <trkpt lat="47.031994" lon="10.284760">
        <ele>2431.230896</ele>
        <time>2026-06-25T15:47:24.220Z</time>
      </trkpt>
      <trkpt lat="47.031324" lon="10.284997">
        <ele>2394.393296</ele>
        <time>2026-06-25T15:48:41.009Z</time>
      </trkpt>
      <trkpt lat="47.030655" lon="10.285234">
        <ele>2357.607629</ele>
        <time>2026-06-25T15:49:56.903Z</time>
      </trkpt>
      <trkpt lat="47.029959" lon="10.285271">
        <ele>2321.519973</ele>
        <time>2026-06-25T15:51:14.066Z</time>
      </trkpt>
      <trkpt lat="47.029263" lon="10.285308">
        <ele>2286.819581</ele>
        <time>2026-06-25T15:52:30.755Z</time>
      </trkpt>
      <trkpt lat="47.028660" lon="10.285892">
        <ele>2250.819423</ele>
        <time>2026-06-25T15:53:49.764Z</time>
      </trkpt>
      <trkpt lat="47.028058" lon="10.286475">
        <ele>2218.002879</ele>
        <time>2026-06-25T15:55:07.558Z</time>
      </trkpt>
      <trkpt lat="47.027664" lon="10.286736">
        <ele>2198.523458</ele>
        <time>2026-06-25T15:55:53.908Z</time>
      </trkpt>
      <trkpt lat="47.027270" lon="10.286998">
        <ele>2179.031352</ele>
        <time>2026-06-25T15:56:40.470Z</time>
      </trkpt>
      <trkpt lat="47.026876" lon="10.287259">
        <ele>2157.965949</ele>
        <time>2026-06-25T15:57:27.388Z</time>
      </trkpt>
      <trkpt lat="47.026482" lon="10.287520">
        <ele>2134.036996</ele>
        <time>2026-06-25T15:58:14.104Z</time>
      </trkpt>
      <trkpt lat="47.025694" lon="10.288042">
        <ele>2086.178999</ele>
        <time>2026-06-25T15:59:50.898Z</time>
      </trkpt>
      <trkpt lat="47.025194" lon="10.288059">
        <ele>2055.747983</ele>
        <time>2026-06-25T16:00:48.872Z</time>
      </trkpt>
      <trkpt lat="47.024694" lon="10.288076">
        <ele>2019.053482</ele>
        <time>2026-06-25T16:01:49.187Z</time>
      </trkpt>
      <trkpt lat="47.024273" lon="10.288026">
        <ele>1988.063943</ele>
        <time>2026-06-25T16:02:41.025Z</time>
      </trkpt>
      <trkpt lat="47.023853" lon="10.287976">
        <ele>1957.147531</ele>
        <time>2026-06-25T16:03:32.673Z</time>
      </trkpt>
      <trkpt lat="47.023432" lon="10.287926">
        <ele>1927.114625</ele>
        <time>2026-06-25T16:04:23.225Z</time>
      </trkpt>
      <trkpt lat="47.023012" lon="10.287876">
        <ele>1899.553884</ele>
        <time>2026-06-25T16:05:12.708Z</time>
      </trkpt>
      <trkpt lat="47.022592" lon="10.287826">
        <ele>1871.993142</ele>
        <time>2026-06-25T16:06:01.273Z</time>
      </trkpt>
      <trkpt lat="47.022171" lon="10.287776">
        <ele>1844.367207</ele>
        <time>2026-06-25T16:06:49.445Z</time>
      </trkpt>
      <trkpt lat="47.021330" lon="10.287676">
        <ele>1786.331600</ele>
        <time>2026-06-25T16:08:26.112Z</time>
      </trkpt>
      <trkpt lat="47.020919" lon="10.287935">
        <ele>1754.113080</ele>
        <time>2026-06-25T16:09:18.953Z</time>
      </trkpt>
      <trkpt lat="47.020508" lon="10.288195">
        <ele>1721.875108</ele>
        <time>2026-06-25T16:10:12.812Z</time>
      </trkpt>
      <trkpt lat="47.019686" lon="10.288714">
        <ele>1653.459114</ele>
        <time>2026-06-25T16:12:03.619Z</time>
      </trkpt>
      <trkpt lat="47.019330" lon="10.288958">
        <ele>1621.466453</ele>
        <time>2026-06-25T16:12:53.368Z</time>
      </trkpt>
      <trkpt lat="47.018708" lon="10.289385">
        <ele>1565.552955</ele>
        <time>2026-06-25T16:14:18.846Z</time>
      </trkpt>
      <trkpt lat="47.018085" lon="10.289813">
        <ele>1514.938015</ele>
        <time>2026-06-25T16:15:43.311Z</time>
      </trkpt>
      <trkpt lat="47.017463" lon="10.290240">
        <ele>1468.512098</ele>
        <time>2026-06-25T16:17:04.792Z</time>
      </trkpt>
      <trkpt lat="47.016841" lon="10.290668">
        <ele>1422.066528</ele>
        <time>2026-06-25T16:18:23.313Z</time>
      </trkpt>
      <trkpt lat="47.016129" lon="10.291156">
        <ele>1392.076132</ele>
        <time>2026-06-25T16:19:49.405Z</time>
      </trkpt>
      <trkpt lat="47.015975" lon="10.292246">
        <ele>1364.133185</ele>
        <time>2026-06-25T16:21:08.289Z</time>
      </trkpt>
      <trkpt lat="47.015822" lon="10.293336">
        <ele>1353.527111</ele>
        <time>2026-06-25T16:22:25.073Z</time>
      </trkpt>
      <trkpt lat="47.015669" lon="10.294425">
        <ele>1353.527111</ele>
        <time>2026-06-25T16:23:41.011Z</time>
      </trkpt>
      <trkpt lat="47.015515" lon="10.295515">
        <ele>1353.527111</ele>
        <time>2026-06-25T16:24:56.964Z</time>
      </trkpt>
    </trkseg>
  </trk>
</gpx>